[ {"name": "STARLINK-35080", "line1": "1 65437U 25194D   26156.03967642  .00005726  00000+0  40053-3 0  9997", "line2": "2 65437  97.4061   9.8936 0002204  86.9225 273.2254 15.05653260 42799"}, {"name": "STARLINK-35068", "line1": "1 65438U 25194E   26156.02029311  .00010536  00000+0  73306-3 0  9991", "line2": "2 65438  97.4071   9.7610 0001692  90.1454 269.9968 15.05653937 42784"}, {"name": "STARLINK-35045", "line1": "1 65439U 25194F   26155.38339228  .00004655  00000+0  32617-3 0  9996", "line2": "2 65439  97.4063   9.2435 0002763 107.5433 252.6097 15.05676168 42699"}, {"name": "STARLINK-35050", "line1": "1 65440U 25194G   26156.02859861  .00006258  00000+0  43719-3 0  9996", "line2": "2 65440  97.4058   9.9084 0002339 100.6279 259.5212 15.05663874 42799"}, {"name": "STARLINK-35065", "line1": "1 65441U 25194H   26155.14524401  .00005462  00000+0  38223-3 0  9998", "line2": "2 65441  97.4074   8.9525 0001939  57.2900 302.8514 15.05652695 42651"}, {"name": "STARLINK-34679", "line1": "1 65442U 25194J   26156.03690264  .00005284  00000+0  36986-3 0  9995", "line2": "2 65442  97.4050   9.8952 0002358  78.9361 281.2132 15.05658589 42796"}, {"name": "STARLINK-34678", "line1": "1 65443U 25194K   26155.13970704  .00003074  00000+0  21694-3 0  9991", "line2": "2 65443  97.4063   8.9558 0001981  95.6733 264.4720 15.05660273 42657"}, {"name": "STARLINK-35049", "line1": "1 65444U 25194L   26156.18919674  .00000227  00000+0  19761-4 0  9997", "line2": "2 65444  97.4055   9.9915 0001497  96.0074 264.1324 15.05649338 42816"}, {"name": "STARLINK-35029", "line1": "1 65445U 25194M   26155.18678795  .00007734  00000+0  53922-3 0  9999", "line2": "2 65445  97.4048   9.0450 0002729  94.9237 265.2302 15.05663384 42669"}, {"name": "STARLINK-34991", "line1": "1 65446U 25194N   26155.17848000  .00004832  00000+0  33852-3 0  9993", "line2": "2 65446  97.4057   9.0570 0003107  90.4566 269.7017 15.05661545 42669"}, {"name": "STARLINK-34920", "line1": "1 65447U 25194P   26156.03136346  .00005097  00000+0  35685-3 0  9993", "line2": "2 65447  97.4056   9.9033 0002034  82.0585 278.0873 15.05665095 42799"}, {"name": "STARLINK-35030", "line1": "1 65448U 25194Q   26156.06181921  .00002762  00000+0  19535-3 0  9998", "line2": "2 65448  97.4061   9.8593 0002474 104.8979 255.2523 15.05656018 42798"}, {"name": "STARLINK-35009", "line1": "1 65449U 25194R   26156.02305818  .00004770  00000+0  33429-3 0  9997", "line2": "2 65449  97.4061   9.9163 0002103  90.3525 269.7943 15.05661254 42792"}, {"name": "STARLINK-34970", "line1": "1 65450U 25194S   26155.15355088  .00005219  00000+0  36534-3 0  9995", "line2": "2 65450  97.4046   8.9431 0002136  67.2462 292.8991 15.05660783 42654"}, {"name": "STARLINK-35039", "line1": "1 65451U 25194T   26155.18956283 -.00000132  00000+0 -51558-5 0  9999", "line2": "2 65451  97.4044   9.0433 0003633  75.9778 284.1853 15.05647897 42669"}, {"name": "STARLINK-35084", "line1": "1 65452U 25194U   26156.06735676  .00004308  00000+0  30236-3 0  9994", "line2": "2 65452  97.4064   9.8575 0002234  81.4931 278.6549 15.05659289 42798"}, {"name": "STARLINK-34988", "line1": "1 65453U 25194V   26155.14334404  .00003313  00000+0  23871-3 0  9999", "line2": "2 65453  97.4911   9.9962 0001849  96.3688 263.7749 15.04840983 42706"}, {"name": "STARLINK-35059", "line1": "1 65454U 25194W   26155.14689114  .00003615  00000+0  26005-3 0  9998", "line2": "2 65454  97.4926   9.5192 0002090 123.0937 237.0490 15.04840905 42675"}, {"name": "STARLINK-34728", "line1": "1 65455U 25194X   26155.14802128  .00010207  00000+0  71065-3 0  9992", "line2": "2 65455  97.4062   8.9438 0002962 121.1121 239.0397 15.05635563 42654"}, {"name": "STARLINK-35005", "line1": "1 65456U 25194Y   26156.02584384  .00021079  00000+0  14602-2 0  9994", "line2": "2 65456  97.4054   9.9118 0001943  95.4073 264.7376 15.05659970 42794"}, {"name": "STARLINK-35076", "line1": "1 65457U 25194Z   26155.14247507  .00004196  00000+0  29460-3 0  9990", "line2": "2 65457  97.4062   8.9512 0001675 110.2099 249.9309 15.05657890 42652"}, {"name": "STARLINK-34784", "line1": "1 65458U 25195A   26156.16670139  .00055189  00000+0  17774-2 0  9998", "line2": "2 65458  53.1582 211.3089 0001216  97.7809 298.8504 15.31694488  5918"}, {"name": "STARLINK-34867", "line1": "1 65459U 25195B   26154.46791254  .00027815  00000+0  83195-3 0  9998", "line2": "2 65459  53.1578 219.2635 0000763  85.7362 274.3728 15.34375201 43130"}, {"name": "STARLINK-34850", "line1": "1 65460U 25195C   26154.46369153  .00036239  00000+0  10787-2 0  9995", "line2": "2 65460  53.1552 219.2344 0001188  32.9329 327.1748 15.34394785 43137"}, {"name": "STARLINK-35159", "line1": "1 65461U 25195D   26154.74527343  .00030362  00000+0  90541-3 0  9992", "line2": "2 65461  53.1558 218.1577 0001083  89.1683 270.9444 15.34424179 43174"}, {"name": "STARLINK-35180", "line1": "1 65462U 25195E   26154.46999812  .00018862  00000+0  56799-3 0  9994", "line2": "2 65462  53.1575 219.2770 0001143 141.5585 218.5499 15.34399544 43133"}, {"name": "STARLINK-35111", "line1": "1 65463U 25195F   26156.16670139  .00054438  00000+0  17535-2 0  9995", "line2": "2 65463  53.1568 211.5043 0001207 102.3483 191.2742 15.31695555  5850"}, {"name": "STARLINK-35107", "line1": "1 65464U 25195G   26154.44490764  .00028144  00000+0  91440-3 0  9992", "line2": "2 65464  53.1588 219.1203 0001715  39.9434 320.1694 15.31730567 43135"}, {"name": "STARLINK-35169", "line1": "1 65465U 25195H   26155.80007351  .00022611  00000+0  67844-3 0  9994", "line2": "2 65465  53.1567 213.3620 0001072  17.2013 342.9026 15.34394950 43338"}, {"name": "STARLINK-35027", "line1": "1 65466U 25195J   26154.48262203  .00023109  00000+0  69275-3 0  9990", "line2": "2 65466  53.1584 219.3534 0001141  64.2343 295.8777 15.34410012 43138"}, {"name": "STARLINK-34816", "line1": "1 65467U 25195K   26155.71856565  .00018780  00000+0  64453-3 0  9990", "line2": "2 65467  53.1576 214.2670 0001337  49.7870 310.3247 15.30202609 43317"}, {"name": "STARLINK-35033", "line1": "1 65468U 25195L   26154.44956745  .00029332  00000+0  95311-3 0  9993", "line2": "2 65468  53.1572 219.1437 0000833  78.6350 281.4745 15.31704614 43138"}, {"name": "STARLINK-34924", "line1": "1 65469U 25195M   26154.59606470  .00031355  00000+0  93548-3 0  9995", "line2": "2 65469  53.1567 218.6425 0000952  70.2898 289.8207 15.34392599 43156"}, {"name": "STARLINK-34829", "line1": "1 65470U 25195N   26155.77324538  .00031603  00000+0  10240-2 0  9993", "line2": "2 65470  53.1570 213.1888 0001171 124.1050 236.0063 15.31758652 43335"}, {"name": "STARLINK-34888", "line1": "1 65471U 25195P   26154.56038505  .00021291  00000+0  64044-3 0  9990", "line2": "2 65471  53.1588 219.1229 0001505  54.0419 306.0723 15.34352325 43141"}, {"name": "STARLINK-34799", "line1": "1 65472U 25195Q   26154.45737618  .00028661  00000+0  85588-3 0  9994", "line2": "2 65472  53.1571 219.2000 0000886  63.8192 296.2901 15.34410262 43119"}, {"name": "STARLINK-34762", "line1": "1 65473U 25195R   26154.45316962  .00025200  00000+0  75445-3 0  9997", "line2": "2 65473  53.1582 219.1686 0001083 114.6614 245.4501 15.34400278 43113"}, {"name": "STARLINK-34998", "line1": "1 65474U 25195S   26154.50385004  .00016856  00000+0  57987-3 0  9995", "line2": "2 65474  53.1587 219.4802 0001340 105.8243 254.2905 15.30203999 43111"}, {"name": "STARLINK-34832", "line1": "1 65475U 25195T   26155.75168792  .00032135  00000+0  95750-3 0  9995", "line2": "2 65475  53.1578 213.0529 0003232  40.5994 319.5249 15.34418346 43314"}, {"name": "STARLINK-35098", "line1": "1 65476U 25195U   26155.74524339  .00023717  00000+0  77275-3 0  9996", "line2": "2 65476  53.1584 213.0079 0001903  43.2474 316.8677 15.31735039 43311"}, {"name": "STARLINK-35071", "line1": "1 65477U 25195V   26154.49105251  .00023086  00000+0  69175-3 0  9995", "line2": "2 65477  53.1584 219.3991 0001640  97.5332 262.5857 15.34423988 43112"}, {"name": "STARLINK-35093", "line1": "1 65478U 25195W   26154.66865779  .00033818  00000+0  10960-2 0  9994", "line2": "2 65478  53.1567 218.3766 0000820 108.0790 252.0301 15.31717228 43149"}, {"name": "STARLINK-35096", "line1": "1 65479U 25195X   26154.60807270  .00020877  00000+0  68211-3 0  9995", "line2": "2 65479  53.1560 218.7046 0000973  84.1330 275.9782 15.31724730 43133"}, {"name": "STARLINK-35040", "line1": "1 65480U 25195Y   26154.45948840  .00024875  00000+0  74426-3 0  9996", "line2": "2 65480  53.1571 219.1807 0001053  82.5982 277.5141 15.34427330 43116"}, {"name": "STARLINK-35042", "line1": "1 65481U 25195Z   26155.77484774  .00019126  00000+0  57551-3 0  9997", "line2": "2 65481  53.1563 213.1928 0001106  82.9419 277.1709 15.34412962 43317"}, {"name": "STARLINK-35038", "line1": "1 65482U 25195AA  26154.45526955  .00028404  00000+0  84881-3 0  9995", "line2": "2 65482  53.1565 219.1562 0000893  96.2599 263.8505 15.34392838 43112"}, {"name": "STARLINK-35037", "line1": "1 65483U 25195AB  26154.81249990  .00068208  00000+0  20153-2 0  9994", "line2": "2 65483  53.1594 217.8173 0001949 148.8877 211.2241 15.34341007 43165"}, {"name": "STARLINK-35089", "line1": "1 65484U 25195AC  26156.16670139  .00054929  00000+0  16261-2 0  9998", "line2": "2 65484  53.1581 211.1073 0001214  91.8438  30.4363 15.34379015  5875"}, {"name": "STARLINK-35143", "line1": "1 65485U 25195AD  26156.16670139  .00030401  00000+0  10349-2 0  9999", "line2": "2 65485  53.1565 211.5145 0001326  94.0419 181.8477 15.30182793  5777"}, {"name": "STARLINK-35226", "line1": "1 65492U 25198A   26155.78328980  .00032082  00000+0  95569-3 0  9996", "line2": "2 65492  53.1583 225.1006 0001597  54.4107 305.7044 15.34429465 41979"}, {"name": "STARLINK-35242", "line1": "1 65493U 25198B   26154.85875953  .00026199  00000+0  78387-3 0  9992", "line2": "2 65493  53.1594 229.2892 0001018  94.7040 265.4079 15.34398039 41838"}, {"name": "STARLINK-35223", "line1": "1 65494U 25198C   26155.73918403  .00016997  00000+0  51286-3 0  9993", "line2": "2 65494  53.1587 225.5374 0001899 169.7246 190.3795 15.34411473 41966"}]